NORAD_CAT_ID,OBJECT_NAME,OBJECT_TYPE,EPOCH,MEAN_MOTION,ECCENTRICITY,INCLINATION,RA_OF_ASC_NODE,ARG_OF_PERICENTER,MEAN_ANOMALY,BSTAR,MEAN_MOTION_DOT,MEAN_MOTION_DDOT,TLE_LINE0,TLE_LINE1,TLE_LINE2,SEMIMAJOR_AXIS,PERIOD,APOGEE,PERIGEE,DECAYED
56772.0,STARLINK-6275,PAYLOAD,2023-10-18 13:49:02,14.98326892,0.0002604,70.0026,45.8675,263.9622,96.124,-2.2538e-06,-1.2e-06,0.0,0 STARLINK-6275,1 56772U 23078F   23291.57572562 -.00000120  00000-0 -22538-5 0  9993,2 56772  70.0026  45.8675 0002604 263.9622  96.1240 14.98326892 21660,6950.203,96.107,573.877,570.258,0.0
56772.0,STARLINK-6275,PAYLOAD,2023-10-19 01:01:58,14.98335099,0.0002688,70.0024,44.6891,275.4271,84.6582,-1.2858e-05,-2.46e-06,0.0,0 STARLINK-6275,1 56772U 23078F   23292.04304050 -.00000246  00000-0 -12858-4 0  9993,2 56772  70.0024  44.6891 0002688 275.4271  84.6582 14.98335099 21733,6950.177,96.107,573.91,570.174,0.0
56772.0,STARLINK-6275,PAYLOAD,2023-10-19 12:14:54,14.98336486,0.000307,70.0018,43.5111,271.1398,88.9409,0.00011211,1.245e-05,0.0,0 STARLINK-6275,1 56772U 23078F   23292.51035372  .00001245  00000-0  11211-3 0  9992,2 56772  70.0018  43.5111 0003070 271.1398  88.9409 14.98336486 21543,6950.173,96.107,574.172,569.904,0.0
56772.0,STARLINK-6275,PAYLOAD,2023-10-20 01:03:58,14.98331994,0.000302,69.9997,42.1593,272.5714,87.5099,0.00014923,1.688e-05,0.0,0 STARLINK-6275,1 56772U 23078F   23293.04443176  .00001688  00000-0  14923-3 0  9990,2 56772  69.9997  42.1593 0003020 272.5714  87.5099 14.98331994 21883,6950.187,96.107,574.151,569.953,0.0
56772.0,STARLINK-6275,PAYLOAD,2023-10-20 10:40:46,14.98346704,0.0002394,70.0015,41.1542,261.2707,98.8181,0.00022759,2.625e-05,0.0,0 STARLINK-6275,1 56772U 23078F   23293.44498155  .00002625  00000-0  22759-3 0  9999,2 56772  70.0015  41.1542 0002394 261.2707  98.8181 14.98346704 21949,6950.141,96.106,573.67,570.342,0.0
56772.0,STARLINK-6275,PAYLOAD,2023-10-20 12:16:54,14.9834661,0.0002406,70.0018,40.9861,262.1344,97.9542,0.00021864,2.518e-05,0.0,0 STARLINK-6275,1 56772U 23078F   23293.51174122  .00002518  00000-0  21864-3 0  9999,2 56772  70.0018  40.9861 0002406 262.1344  97.9542 14.98346610 21693,6950.142,96.106,573.679,570.334,0.0
56772.0,STARLINK-6275,PAYLOAD,2023-10-21 10:42:48,14.98326116,0.0002606,70.001,38.6287,215.1717,144.927,-0.00017757,-2.211e-05,0.0,0 STARLINK-6275,1 56772U 23078F   23294.44639761 -.00002211  00000-0 -17757-3 0  9995,2 56772  70.0010  38.6287 0002606 215.1717 144.9270 14.98326116 22090,6950.205,96.107,573.881,570.259,0.0
56772.0,STARLINK-6275,PAYLOAD,2023-10-21 13:55:04,14.98330089,0.0003134,70.0,38.2923,271.1898,88.8902,-0.00019979,-2.476e-05,0.0,0 STARLINK-6275,1 56772U 23078F   23294.57991834 -.00002476  00000-0 -19979-3 0  9992,2 56772  70.0000  38.2923 0003134 271.1898  88.8902 14.98330089 21856,6950.193,96.107,574.236,569.879,0.0
56772.0,STARLINK-6275,PAYLOAD,2023-10-22 10:44:50,14.98314316,0.0003056,70.0003,36.1038,274.7994,85.2816,-2.1503e-05,-3.49e-06,0.0,0 STARLINK-6275,1 56772U 23078F   23295.44780832 -.00000349  00000-0 -21503-4 0  9997,2 56772  70.0003  36.1038 0003056 274.7994  85.2816 14.98314316 22246,6950.241,96.108,574.23,569.982,0.0
56772.0,STARLINK-6275,PAYLOAD,2023-10-22 13:57:04,14.98357608,0.000176,70.0031,35.7679,250.8907,109.2062,-0.00014945,-1.877e-05,0.0,0 STARLINK-6275,1 56772U 23078F   23295.58130425 -.00001877  00000-0 -14945-3 0  9997,2 56772  70.0031  35.7679 0001760 250.8907 109.2062 14.98357608 22007,6950.108,96.105,573.196,570.749,0.0
56772.0,STARLINK-6275,PAYLOAD,2023-10-22 17:09:21,14.98356828,0.0002269,70.0014,35.4324,251.6376,108.4536,-0.00069081,-8.331e-05,0.0,0 STARLINK-6275,1 56772U 23078F   23295.71483660 -.00008331  00000-0 -69081-3 0  9997,2 56772  70.0014  35.4324 0002269 251.6376 108.4536 14.98356828 22286,6950.11,96.105,573.552,570.398,0.0
56772.0,STARLINK-6275,PAYLOAD,2023-10-22 23:33:54,14.98324214,0.0002053,70.0025,34.7565,261.1664,98.9263,-6.318e-06,-1.68e-06,0.0,0 STARLINK-6275,1 56772U 23078F   23295.98188290 -.00000168  00000-0 -63180-5 0  9993,2 56772  70.0025  34.7565 0002053 261.1664  98.9263 14.98324214 22323,6950.211,96.107,573.503,570.649,0.0
56772.0,STARLINK-6275,PAYLOAD,2023-10-23 12:22:58,14.98322241,0.0002213,70.0013,33.4104,237.4996,122.595,0.00014896,1.685e-05,0.0,0 STARLINK-6275,1 56772U 23078F   23296.51595887  .00001685  00000-0  14896-3 0  9998,2 56772  70.0013  33.4104 0002213 237.4996 122.5950 14.98322241 22142,6950.217,96.107,573.62,570.544,0.0
56772.0,STARLINK-6275,PAYLOAD,2023-10-23 23:35:55,14.98328083,0.0003149,70.0012,32.2312,277.9805,82.0996,0.00015332,1.737e-05,0.0,0 STARLINK-6275,1 56772U 23078F   23296.98327790  .00001737  00000-0  15332-3 0  9999,2 56772  70.0012  32.2312 0003149 277.9805  82.0996 14.98328083 22472,6950.199,96.107,574.252,569.875,0.0
56772.0,STARLINK-6275,PAYLOAD,2023-10-24 10:48:52,14.98319759,0.000261,70.0013,31.0545,260.7956,99.2908,4.7613e-05,4.75e-06,0.0,0 STARLINK-6275,1 56772U 23078F   23297.45060718  .00000475  00000-0  47613-4 0  9992,2 56772  70.0013  31.0545 0002610 260.7956  99.2908 14.98319759 22548,6950.225,96.108,573.904,570.276,0.0
56772.0,STARLINK-6275,PAYLOAD,2023-10-24 12:25:00,14.98324988,0.0002676,70.0015,30.885,264.4295,95.6558,0.0001688,1.921e-05,0.0,0 STARLINK-6275,1 56772U 23078F   23297.51736134  .00001921  00000-0  16880-3 0  9999,2 56772  70.0015  30.8850 0002676 264.4295  95.6558 14.98324988 22298,6950.208,96.107,573.933,570.214,0.0
56772.0,STARLINK-6275,PAYLOAD,2023-10-25 14:03:08,14.98332639,0.0002387,70.0024,28.1943,250.3947,109.6955,-2.1534e-06,-1.19e-06,0.0,0 STARLINK-6275,1 56772U 23078F   23298.58551939 -.00000119  00000-0 -21534-5 0  9999,2 56772  70.0024  28.1943 0002387 250.3947 109.6955 14.98332639 22714,6950.185,96.107,573.709,570.391,0.0
56772.0,STARLINK-6275,PAYLOAD,2023-10-25 23:39:58,14.98316552,0.00028,70.0018,27.1846,276.0576,84.0264,-0.00018424,-2.29e-05,0.0,0 STARLINK-6275,1 56772U 23078F   23298.98609568 -.00002290  00000-0 -18424-3 0  9999,2 56772  70.0018  27.1846 0002800 276.0576  84.0264 14.98316552 22772,6950.234,96.108,574.046,570.153,0.0
56772.0,STARLINK-6275,PAYLOAD,2023-10-26 14:05:10,14.98321819,0.0002791,70.001,25.6683,274.189,85.895,-3.1615e-05,-4.7e-06,0.0,0 STARLINK-6275,1 56772U 23078F   23299.58693227 -.00000470  00000-0 -31615-4 0  9997,2 56772  70.0010  25.6683 0002791 274.1890  85.8950 14.98321819 22608,6950.218,96.108,574.023,570.143,0.0
56772.0,STARLINK-6275,PAYLOAD,2023-10-26 15:41:18,14.98324599,0.0002747,70.0012,25.5002,274.7641,85.3205,-3.5982e-06,-1.36e-06,0.0,0 STARLINK-6275,1 56772U 23078F   23299.65368994 -.00000136  00000-0 -35982-5 0  9996,2 56772  70.0012  25.5002 0002747 274.7641  85.3205 14.98324599 22870,6950.21,96.107,573.984,570.165,0.0
56772.0,STARLINK-6275,PAYLOAD,2023-10-27 04:30:22,14.98338533,0.0003106,70.0002,24.1526,271.8691,88.2113,7.0011e-05,7.43e-06,0.0,0 STARLINK-6275,1 56772U 23078F   23300.18775718  .00000743  00000-0  70011-4 0  9996,2 56772  70.0002  24.1526 0003106 271.8691  88.2113 14.98338533 22950,6950.167,96.106,574.19,569.873,0.0
56772.0,STARLINK-6275,PAYLOAD,2023-10-27 12:31:01,14.98352589,0.0002425,70.0009,23.3123,262.5233,97.5651,0.00020891,2.402e-05,0.0,0 STARLINK-6275,1 56772U 23078F   23300.52154195  .00002402  00000-0  20891-3 0  9998,2 56772  70.0009  23.3123 0002425 262.5233  97.5651 14.98352589 23007,6950.123,96.106,573.673,570.303,0.0
56772.0,STARLINK-6275,PAYLOAD,2023-10-27 15:43:17,14.98353612,0.0002452,70.0006,22.9747,265.2991,94.7888,0.00021619,2.489e-05,0.0,0 STARLINK-6275,1 56772U 23078F   23300.65505938  .00002489  00000-0  21619-3 0  9991,2 56772  70.0006  22.9747 0002452 265.2991  94.7888 14.98353612 22763,6950.12,96.105,573.689,570.281,0.0
56772.0,STARLINK-6275,PAYLOAD,2023-10-28 10:56:56,14.98320414,0.0002853,70.0008,20.9551,274.2356,85.8477,-1.1543e-05,-2.31e-06,0.0,0 STARLINK-6275,1 56772U 23078F   23301.45620653 -.00000231  00000-0 -11543-4 0  9993,2 56772  70.0008  20.9551 0002853 274.2356  85.8477 14.98320414 23148,6950.223,96.108,574.07,570.105,0.0
56772.0,STARLINK-6275,PAYLOAD,2023-10-28 14:09:12,14.98323227,0.0002932,70.0005,20.6183,275.0298,85.0526,-4.2826e-05,-6.04e-06,0.0,0 STARLINK-6275,1 56772U 23078F   23301.58972593 -.00000604  00000-0 -42826-4 0  9992,2 56772  70.0005  20.6183 0002932 275.0298  85.0526 14.98323227 22900,6950.214,96.107,574.117,570.041,0.0
56772.0,STARLINK-6275,PAYLOAD,2023-10-28 15:45:19,14.98372161,0.0002374,70.0007,20.4498,262.8951,97.1939,-0.00084802,-0.00010207,0.0,0 STARLINK-6275,1 56772U 23078F   23301.65647328 -.00010207  00000-0 -84802-3 0  9994,2 56772  70.0007  20.4498 0002374 262.8951  97.1939 14.98372161 23172,6950.063,96.104,573.577,570.278,0.0
56772.0,STARLINK-6275,PAYLOAD,2023-10-28 22:09:51,14.98335079,0.0003176,70.0004,19.7755,277.6691,82.4107,5.5618e-06,-2.7e-07,0.0,0 STARLINK-6275,1 56772U 23078F   23301.92351600 -.00000027  00000-0  55618-5 0  9992,2 56772  70.0004  19.7755 0003176 277.6691  82.4107 14.98335079 22958,6950.177,96.107,574.25,569.835,0.0
56772.0,STARLINK-6275,PAYLOAD,2023-10-29 12:35:03,14.98349547,0.0002546,70.0006,18.2614,269.8355,90.2513,-3.5866e-05,-5.21e-06,0.0,0 STARLINK-6275,1 56772U 23078F   23302.52434413 -.00000521  00000-0 -35866-4 0  9995,2 56772  70.0006  18.2614 0002546 269.8355  90.2513 14.98349547 23301,6950.132,96.106,573.767,570.228,0.0
56772.0,STARLINK-6275,PAYLOAD,2023-10-29 22:11:51,14.98343663,0.0002875,70.0005,17.2518,275.0413,85.0418,-0.00019028,-2.363e-05,0.0,0 STARLINK-6275,1 56772U 23078F   23302.92490629 -.00002363  00000-0 -19028-3 0  9997,2 56772  70.0005  17.2518 0002875 275.0413  85.0418 14.98343663 23108,6950.151,96.106,574.014,570.017,0.0
56772.0,STARLINK-6275,PAYLOAD,2023-10-30 11:00:58,14.98312353,0.0002895,70.0003,15.9049,269.5923,90.4904,-5.1342e-05,-7.05e-06,0.0,0 STARLINK-6275,1 56772U 23078F   23303.45900489 -.00000705  00000-0 -51342-4 0  9990,2 56772  70.0003  15.9049 0002895 269.5923  90.4904 14.98312353 23445,6950.247,96.108,574.125,570.1,0.0
